start=new Date('2021-11-01T00:00:00.000Z').valueOf();
sats=[{"DECAY_DATE":null,"PERIAPSIS":"546.108","BSTAR":"0.00006595200000","SEMIMAJOR_AXIS":"6925.372","INCLINATION":"53.0560","RCS_SIZE":"LARGE","OBJECT_ID":"2021-024BK","PERIOD":"95.593","OBJECT_NAME":"STARLINK-2288","TIME_SYSTEM":"UTC","CENTER_NAME":"EARTH","ELEMENT_SET_NO":"999","FILE":"3194950","MEAN_MOTION":"15.06392287","REF_FRAME":"TEME","TLE_LINE1":"1 48034U 21024BK  21304.63818952  .00000701  00000-0  65952-4 0  9999","LAUNCH_DATE":"2021-03-24","RA_OF_ASC_NODE":"269.6384","ECCENTRICITY":"0.00016310","TLE_LINE2":"2 48034  53.0560 269.6384 0001631  69.0979 291.0184 15.06392287 34970","ARG_OF_PERICENTER":"69.0979","NORAD_CAT_ID":"48034","MEAN_MOTION_DDOT":"0.0000000000000","EPOCH":"2021-10-31T15:18:59.574528","GP_ID":"188606797","MEAN_MOTION_DOT":"0.00000701","MEAN_ANOMALY":"291.0184","OBJECT_TYPE":"PAYLOAD","MEAN_ELEMENT_THEORY":"SGP4","SITE":"AFETR","REV_AT_EPOCH":"3497","APOAPSIS":"548.367","EPHEMERIS_TYPE":"0","COUNTRY_CODE":"US","CLASSIFICATION_TYPE":"U"},{"NORAD_CAT_ID":"48035","GP_ID":"188607549","MEAN_MOTION_DDOT":"0.0000000000000","EPOCH":"2021-11-01T00:00:00.999648","MEAN_ANOMALY":"27.0374","MEAN_MOTION_DOT":"-0.00033220","RA_OF_ASC_NODE":"182.9981","ECCENTRICITY":"0.00063880","ARG_OF_PERICENTER":"300.6534","TLE_LINE2":"2 48035  53.0434 182.9981 0006388 300.6534  27.0374 15.73245100  3683","APOAPSIS":"353.929","COUNTRY_CODE":"US","EPHEMERIS_TYPE":"0","CLASSIFICATION_TYPE":"U","OBJECT_TYPE":"PAYLOAD","MEAN_ELEMENT_THEORY":"SGP4","SITE":"AFETR","REV_AT_EPOCH":"368","SEMIMAJOR_AXIS":"6727.767","RCS_SIZE":"MEDIUM","INCLINATION":"53.0434","PERIOD":"91.531","OBJECT_ID":"2021-024BL","PERIAPSIS":"345.334","DECAY_DATE":null,"BSTAR":"-0.00023234000000","REF_FRAME":"TEME","TLE_LINE1":"1 48035U 21024BL  21305.00001157 -.00033220  00000-0 -23234-3 0  9993","LAUNCH_DATE":"2021-03-24","TIME_SYSTEM":"UTC","OBJECT_NAME":"STARLINK-2287","CENTER_NAME":"EARTH","ELEMENT_SET_NO":"999","FILE":"3194950","MEAN_MOTION":"15.73245100"},{"NORAD_CAT_ID":"48036","MEAN_MOTION_DDOT":"0.0000000000000","EPOCH":"2021-10-31T15:29:36.618144","GP_ID":"188607793","MEAN_MOTION_DOT":"0.00000632","MEAN_ANOMALY":"291.9620","RA_OF_ASC_NODE":"269.6087","ECCENTRICITY":"0.00014380","TLE_LINE2":"2 48036  53.0548 269.6087 0001438  68.1521 291.9620 15.06396670 34970","ARG_OF_PERICENTER":"68.1521","APOAPSIS":"548.220","COUNTRY_CODE":"US","EPHEMERIS_TYPE":"0","CLASSIFICATION_TYPE":"U","OBJECT_TYPE":"PAYLOAD","SITE":"AFETR","MEAN_ELEMENT_THEORY":"SGP4","REV_AT_EPOCH":"3497","SEMIMAJOR_AXIS":"6925.359","INCLINATION":"53.0548","RCS_SIZE":"LARGE","OBJECT_ID":"2021-024BM","PERIOD":"95.592","DECAY_DATE":null,"PERIAPSIS":"546.228","BSTAR":"0.00006134500000","REF_FRAME":"TEME","TLE_LINE1":"1 48036U 21024BM  21304.64556271  .00000632  00000-0  61345-4 0  9990","LAUNCH_DATE":"2021-03-24","OBJECT_NAME":"STARLINK-2295","TIME_SYSTEM":"UTC","CENTER_NAME":"EARTH","ELEMENT_SET_NO":"999","FILE":"3194950","MEAN_MOTION":"15.06396670"},{"REV_AT_EPOCH":"3383","OBJECT_TYPE":"PAYLOAD","MEAN_ELEMENT_THEORY":"SGP4","SITE":"AFETR","CLASSIFICATION_TYPE":"U","APOAPSIS":"481.754","EPHEMERIS_TYPE":"0","COUNTRY_CODE":"US","TLE_LINE2":"2 48092  53.0434  34.1566 0000607  42.2080 317.8965 15.28152274 33831","ARG_OF_PERICENTER":"42.2080","RA_OF_ASC_NODE":"34.1566","ECCENTRICITY":"0.00006070","MEAN_MOTION_DOT":"-0.00438759","MEAN_ANOMALY":"317.8965","NORAD_CAT_ID":"48092","MEAN_MOTION_DDOT":"0.0000000000000","EPOCH":"2021-10-31T21:09:49.214304","GP_ID":"188606303","FILE":"3194950","MEAN_MOTION":"15.28152274","OBJECT_NAME":"STARLINK-2048","TIME_SYSTEM":"UTC","ELEMENT_SET_NO":"999","CENTER_NAME":"EARTH","LAUNCH_DATE":"2021-04-07","REF_FRAME":"TEME","TLE_LINE1":"1 48092U 21027A   21304.88181961 -.00438759  00000-0 -16716-1 0  9997","BSTAR":"-0.01671600000000","DECAY_DATE":null,"PERIAPSIS":"480.922","OBJECT_ID":"2021-027A","PERIOD":"94.231","SEMIMAJOR_AXIS":"6859.473","INCLINATION":"53.0434","RCS_SIZE":"LARGE"},{"CLASSIFICATION_TYPE":"U","APOAPSIS":"548.480","COUNTRY_CODE":"US","EPHEMERIS_TYPE":"0","REV_AT_EPOCH":"3293","OBJECT_TYPE":"PAYLOAD","SITE":"AFETR","MEAN_ELEMENT_THEORY":"SGP4","MEAN_ANOMALY":"277.1612","MEAN_MOTION_DOT":"-0.00001324","NORAD_CAT_ID":"48093","GP_ID":"188607055","MEAN_MOTION_DDOT":"0.0000000000000","EPOCH":"2021-10-31T20:37:25.505472","ARG_OF_PERICENTER":"82.9583","TLE_LINE2":"2 48093  53.0558  98.6403 0001814  82.9583 277.1612 15.06396767 32934","RA_OF_ASC_NODE":"98.6403","ECCENTRICITY":"0.00018140","LAUNCH_DATE":"2021-04-07","REF_FRAME":"TEME","TLE_LINE1":"1 48093U 21027B   21304.85932298 -.00001324  00000-0 -69998-4 0  9999","FILE":"3194950","MEAN_MOTION":"15.06396767","TIME_SYSTEM":"UTC","OBJECT_NAME":"STARLINK-2404","CENTER_NAME":"EARTH","ELEMENT_SET_NO":"999","PERIOD":"95.592","OBJECT_ID":"2021-027B","SEMIMAJOR_AXIS":"6925.358","RCS_SIZE":"LARGE","INCLINATION":"53.0558","BSTAR":"-0.00006999800000","PERIAPSIS":"545.967","DECAY_DATE":null},{"MEAN_MOTION":"15.06399827","FILE":"3194950","ELEMENT_SET_NO":"999","CENTER_NAME":"EARTH","TIME_SYSTEM":"UTC","OBJECT_NAME":"STARLINK-2412","LAUNCH_DATE":"2021-04-07","TLE_LINE1":"1 48094U 21027C   21304.76351273  .00000079  00000-0  24208-4 0  9997","REF_FRAME":"TEME","BSTAR":"0.00002420800000","PERIAPSIS":"545.986","DECAY_DATE":null,"PERIOD":"95.592","OBJECT_ID":"2021-027C","RCS_SIZE":"LARGE","INCLINATION":"53.0564","SEMIMAJOR_AXIS":"6925.349","REV_AT_EPOCH":"3278","MEAN_ELEMENT_THEORY":"SGP4","SITE":"AFETR","OBJECT_TYPE":"PAYLOAD","CLASSIFICATION_TYPE":"U","COUNTRY_CODE":"US","EPHEMERIS_TYPE":"0","APOAPSIS":"548.442","ARG_OF_PERICENTER":"88.5549","TLE_LINE2":"2 48094  53.0564 109.0740 0001773  88.5549 271.5643 15.06399827 32786","ECCENTRICITY":"0.00017730","RA_OF_ASC_NODE":"109.0740","MEAN_ANOMALY":"271.5643","MEAN_MOTION_DOT":"0.00000079","GP_ID":"188607299","EPOCH":"2021-10-31T18:19:27.499872","MEAN_MOTION_DDOT":"0.0000000000000","NORAD_CAT_ID":"48094"},{"LAUNCH_DATE":"2021-04-07","TLE_LINE1":"1 48095U 21027D   21304.83723586 -.00000613  00000-0 -22234-4 0  9999","REF_FRAME":"TEME","MEAN_MOTION":"15.06392264","FILE":"3194950","CENTER_NAME":"EARTH","ELEMENT_SET_NO":"999","OBJECT_NAME":"STARLINK-2414","TIME_SYSTEM":"UTC","OBJECT_ID":"2021-027D","PERIOD":"95.593","INCLINATION":"53.0570","RCS_SIZE":"LARGE","SEMIMAJOR_AXIS":"6925.372","BSTAR":"-0.00002223400000","DECAY_DATE":null,"PERIAPSIS":"546.045","CLASSIFICATION_TYPE":"U","EPHEMERIS_TYPE":"0","COUNTRY_CODE":"US","APOAPSIS":"548.429","REV_AT_EPOCH":"3280","MEAN_ELEMENT_THEORY":"SGP4","SITE":"AFETR","OBJECT_TYPE":"PAYLOAD","MEAN_MOTION_DOT":"-0.00000613","MEAN_ANOMALY":"269.1767","MEAN_MOTION_DDOT":"0.0000000000000","EPOCH":"2021-10-31T20:05:37.178304","GP_ID":"188606554","NORAD_CAT_ID":"48095","TLE_LINE2":"2 48095  53.0570 108.7499 0001721  90.9419 269.1767 15.06392264 32808","ARG_OF_PERICENTER":"90.9419","ECCENTRICITY":"0.00017210","RA_OF_ASC_NODE":"108.7499"},{"MEAN_MOTION":"15.06405552","FILE":"3194950","ELEMENT_SET_NO":"999","CENTER_NAME":"EARTH","TIME_SYSTEM":"UTC","OBJECT_NAME":"STARLINK-2417","LAUNCH_DATE":"2021-04-07","TLE_LINE1":"1 48096U 21027E   21304.74507574  .00000321  00000-0  40459-4 0  9990","REF_FRAME":"TEME","BSTAR":"0.00004045900000","PERIAPSIS":"546.081","DECAY_DATE":null,"PERIOD":"95.592","OBJECT_ID":"2021-027E","RCS_SIZE":"LARGE","INCLINATION":"53.0570","SEMIMAJOR_AXIS":"6925.332","REV_AT_EPOCH":"3277","SITE":"AFETR","MEAN_ELEMENT_THEORY":"SGP4","OBJECT_TYPE":"PAYLOAD","CLASSIFICATION_TYPE":"U","EPHEMERIS_TYPE":"0","COUNTRY_CODE":"US","APOAPSIS":"548.312","ARG_OF_PERICENTER":"89.5739","TLE_LINE2":"2 48096  53.0570 109.1643 0001611  89.5739 270.5435 15.06405552 32771","ECCENTRICITY":"0.00016110","RA_OF_ASC_NODE":"109.1643","MEAN_ANOMALY":"270.5435","MEAN_MOTION_DOT":"0.00000321","GP_ID":"188606804","MEAN_MOTION_DDOT":"0.0000000000000","EPOCH":"2021-10-31T17:52:54.543936","NORAD_CAT_ID":"48096"},{"COUNTRY_CODE":"US","EPHEMERIS_TYPE":"0","APOAPSIS":"548.523","CLASSIFICATION_TYPE":"U","SITE":"AFETR","MEAN_ELEMENT_THEORY":"SGP4","OBJECT_TYPE":"PAYLOAD","REV_AT_EPOCH":"3302","GP_ID":"188571659","MEAN_MOTION_DDOT":"0.0000000000000","EPOCH":"2021-10-31T12:37:06.051936","NORAD_CAT_ID":"48097","MEAN_ANOMALY":"282.1767","MEAN_MOTION_DOT":"0.00000569","ECCENTRICITY":"0.00019620","RA_OF_ASC_NODE":"90.1347","ARG_OF_PERICENTER":"77.9442","TLE_LINE2":"2 48097  53.0554  90.1347 0001962  77.9442 282.1767 15.06415951 33025","TLE_LINE1":"1 48097U 21027F   21304.52576449  .00000569  00000-0  57101-4 0  9990","REF_FRAME":"TEME","LAUNCH_DATE":"2021-04-07","CENTER_NAME":"EARTH","ELEMENT_SET_NO":"999","TIME_SYSTEM":"UTC","OBJECT_NAME":"STARLINK-2418","MEAN_MOTION":"15.06415951","FILE":"3194431","RCS_SIZE":"LARGE","INCLINATION":"53.0554","SEMIMAJOR_AXIS":"6925.300","PERIOD":"95.591","OBJECT_ID":"2021-027F","PERIAPSIS":"545.806","DECAY_DATE":null,"BSTAR":"0.00005710100000"},{"LAUNCH_DATE":"2021-04-07","REF_FRAME":"TEME","TLE_LINE1":"1 48098U 21027G   21304.83447628 -.00000214  00000-0  45105-5 0  9991","FILE":"3194950","MEAN_MOTION":"15.06393729","TIME_SYSTEM":"UTC","OBJECT_NAME":"STARLINK-2421","CENTER_NAME":"EARTH","ELEMENT_SET_NO":"999","PERIOD":"95.593","OBJECT_ID":"2021-027G","SEMIMAJOR_AXIS":"6925.368","RCS_SIZE":"LARGE","INCLINATION":"53.0562","BSTAR":"0.00000451050000","PERIAPSIS":"546.076","DECAY_DATE":null,"CLASSIFICATION_TYPE":"U","APOAPSIS":"548.389","EPHEMERIS_TYPE":"0","COUNTRY_CODE":"US","REV_AT_EPOCH":"3292","OBJECT_TYPE":"PAYLOAD","SITE":"AFETR","MEAN_ELEMENT_THEORY":"SGP4","MEAN_ANOMALY":"272.4371","MEAN_MOTION_DOT":"-0.00000214","NORAD_CAT_ID":"48098","GP_ID":"188607800","MEAN_MOTION_DDOT":"0.0000000000000","EPOCH":"2021-10-31T20:01:38.750592","ARG_OF_PERICENTER":"87.6810","TLE_LINE2":"2 48098  53.0562  98.7546 0001670  87.6810 272.4371 15.06393729 32922","RA_OF_ASC_NODE":"98.7546","ECCENTRICITY":"0.00016700"}];
